NORAD_CAT_ID,OBJECT_NAME,OBJECT_TYPE,EPOCH,MEAN_MOTION,ECCENTRICITY,INCLINATION,RA_OF_ASC_NODE,ARG_OF_PERICENTER,MEAN_ANOMALY,BSTAR,MEAN_MOTION_DOT,MEAN_MOTION_DDOT,TLE_LINE0,TLE_LINE1,TLE_LINE2,SEMIMAJOR_AXIS,PERIOD,APOGEE,PERIGEE,DECAYED
51898.0,STARLINK-3597,PAYLOAD,2023-09-24 10:30:18,15.0884139,0.0001377,53.2166,67.0409,86.9044,273.2106,0.00011907,1.608e-05,0.0,0 STARLINK-3597,1 51898U 22022AY  23267.43771538  .00001608  00000-0  11907-3 0  9993,2 51898  53.2166  67.0409 0001377  86.9044 273.2106 15.08841390 87848,6917.876,95.437,540.694,538.789,0.0
51898.0,STARLINK-3597,PAYLOAD,2023-09-24 20:02:36,15.08854317,0.0001304,53.217,65.2566,84.0987,276.0154,0.00024828,3.667e-05,0.0,0 STARLINK-3597,1 51898U 22022AY  23267.83514879  .00003667  00000-0  24828-3 0  9993,2 51898  53.2170  65.2566 0001304  84.0987 276.0154 15.08854317 87906,6917.837,95.437,540.604,538.8,0.0
51898.0,STARLINK-3597,PAYLOAD,2023-09-25 10:21:05,15.08843945,0.0001395,53.2168,62.5792,85.8645,274.2507,0.0002068,3.005e-05,0.0,0 STARLINK-3597,1 51898U 22022AY  23268.43131463  .00003005  00000-0  20680-3 0  9992,2 51898  53.2168  62.5792 0001395  85.8645 274.2507 15.08843945 87990,6917.868,95.437,540.698,538.768,0.0
51898.0,STARLINK-3597,PAYLOAD,2023-09-25 16:42:37,15.08852256,0.0001412,53.2168,61.3904,84.3306,275.7847,0.00030717,4.606e-05,0.0,0 STARLINK-3597,1 51898U 22022AY  23268.69627123  .00004606  00000-0  30717-3 0  9993,2 51898  53.2168  61.3904 0001412  84.3306 275.7847 15.08852256 88034,6917.843,95.437,540.685,538.731,0.0
51898.0,STARLINK-3597,PAYLOAD,2023-09-25 21:28:46,15.08859328,0.0001465,53.2168,60.4975,86.4941,273.6218,0.00050931,7.831e-05,0.0,0 STARLINK-3597,1 51898U 22022AY  23268.89498833  .00007831  00000-0  50931-3 0  9992,2 51898  53.2168  60.4975 0001465  86.4941 273.6218 15.08859328 88067,6917.821,95.436,540.7,538.673,0.0
51898.0,STARLINK-3597,PAYLOAD,2023-09-26 13:22:39,15.08829869,0.0001243,53.2173,57.5244,86.2894,273.8241,7.7888e-06,-1.64e-06,0.0,0 STARLINK-3597,1 51898U 22022AY  23269.55739977 -.00000164  00000-0  77888-5 0  9998,2 51898  53.2173  57.5244 0001243  86.2894 273.8241 15.08829869 88164,6917.911,95.438,540.636,538.916,0.0
51898.0,STARLINK-3597,PAYLOAD,2023-09-26 16:33:25,15.08834313,0.0001384,53.2176,56.9296,84.3684,275.7466,0.00021248,3.095e-05,0.0,0 STARLINK-3597,1 51898U 22022AY  23269.68988050  .00003095  00000-0  21248-3 0  9992,2 51898  53.2176  56.9296 0001384  84.3684 275.7466 15.08834313 88181,6917.898,95.438,540.72,538.805,0.0
51898.0,STARLINK-3597,PAYLOAD,2023-09-26 19:44:11,15.0883956,0.000141,53.2179,56.3343,83.4626,276.6526,0.00042189,6.433e-05,0.0,0 STARLINK-3597,1 51898U 22022AY  23269.82236041  .00006433  00000-0  42189-3 0  9990,2 51898  53.2179  56.3343 0001410  83.4626 276.6526 15.08839560 88206,6917.882,95.438,540.722,538.771,0.0
51898.0,STARLINK-3597,PAYLOAD,2023-09-27 13:13:26,15.08844565,0.0001457,53.2171,53.0621,95.1038,265.0121,0.0006935,0.00010768,0.0,0 STARLINK-3597,1 51898U 22022AY  23270.55100311  .00010768  00000-0  69350-3 0  9997,2 51898  53.2171  53.0621 0001457  95.1038 265.0121 15.08844565 88315,6917.866,95.437,540.739,538.724,0.0
51898.0,STARLINK-3597,PAYLOAD,2023-09-27 16:24:12,15.08850531,0.0001445,53.218,52.4675,87.5389,272.5769,0.00080618,0.00012569,0.0,0 STARLINK-3597,1 51898U 22022AY  23270.68348214  .00012569  00000-0  80618-3 0  9998,2 51898  53.2180  52.4675 0001445  87.5389 272.5769 15.08850531 88331,6917.848,95.437,540.713,538.714,0.0
51898.0,STARLINK-3597,PAYLOAD,2023-09-28 13:04:13,15.08844659,0.0001377,53.2183,48.6078,94.9714,265.1435,0.00022435,3.285e-05,0.0,0 STARLINK-3597,1 51898U 22022AY  23271.54460199  .00003285  00000-0  22435-3 0  9999,2 51898  53.2183  48.6078 0001377  94.9714 265.1435 15.08844659 88462,6917.866,95.437,540.684,538.779,0.0
51898.0,STARLINK-3597,PAYLOAD,2023-09-28 14:39:36,15.08845697,0.0001387,53.2186,48.3107,95.4548,264.6602,0.00024216,3.569e-05,0.0,0 STARLINK-3597,1 51898U 22022AY  23271.61084157  .00003569  00000-0  24216-3 0  9997,2 51898  53.2186  48.3107 0001387  95.4548 264.6602 15.08845697 88471,6917.863,95.437,540.687,538.768,0.0
51898.0,STARLINK-3597,PAYLOAD,2023-09-29 09:44:14,15.08842889,0.0001323,53.2186,44.7391,90.2458,269.8686,4.7499e-05,4.68e-06,0.0,0 STARLINK-3597,1 51898U 22022AY  23272.40572071  .00000468  00000-0  47499-4 0  9996,2 51898  53.2186  44.7391 0001323  90.2458 269.8686 15.08842889 88591,6917.872,95.437,540.652,538.821,0.0
51898.0,STARLINK-3597,PAYLOAD,2023-09-29 14:30:23,15.08845854,0.0001297,53.2183,43.8464,88.9739,271.1402,0.00010119,1.323e-05,0.0,0 STARLINK-3597,1 51898U 22022AY  23272.60443946  .00001323  00000-0  10119-3 0  9995,2 51898  53.2183  43.8464 0001297  88.9739 271.1402 15.08845854 88626,6917.862,95.437,540.625,538.83,0.0
51898.0,STARLINK-3597,PAYLOAD,2023-09-30 01:38:05,15.08836636,0.0001394,53.2188,41.7652,87.7357,272.3795,-5.1208e-06,-3.69e-06,0.0,0 STARLINK-3597,1 51898U 22022AY  23273.06812324 -.00000369  00000-0 -51208-5 0  9993,2 51898  53.2188  41.7652 0001394  87.7357 272.3795 15.08836636 88691,6917.891,95.438,540.72,538.791,0.0
51898.0,STARLINK-3597,PAYLOAD,2023-09-30 17:31:56,15.08848647,0.0001491,53.2188,38.7905,84.7807,275.3355,0.0001782,2.55e-05,0.0,0 STARLINK-3597,1 51898U 22022AY  23273.73051723  .00002550  00000-0  17820-3 0  9997,2 51898  53.2188  38.7905 0001491  84.7807 275.3355 15.08848647 88794,6917.854,95.437,540.75,538.688,0.0
51898.0,STARLINK-3597,PAYLOAD,2023-10-01 12:36:34,15.08843545,0.0001388,53.2184,35.2212,81.3355,278.7794,7.9719e-05,9.81e-06,0.0,0 STARLINK-3597,1 51898U 22022AY  23274.52539866  .00000981  00000-0  79719-4 0  9996,2 51898  53.2184  35.2212 0001388  81.3355 278.7794 15.08843545 88919,6917.87,95.437,540.695,538.774,0.0
51898.0,STARLINK-3597,PAYLOAD,2023-10-01 14:11:57,15.08844621,0.0001391,53.2182,34.9245,79.2391,280.8758,0.00012094,1.638e-05,0.0,0 STARLINK-3597,1 51898U 22022AY  23274.59163811  .00001638  00000-0  12094-3 0  9998,2 51898  53.2182  34.9245 0001391  79.2391 280.8758 15.08844621 88920,6917.866,95.437,540.694,538.769,0.0
51898.0,STARLINK-3597,PAYLOAD,2023-10-01 17:22:43,15.08851717,0.0001354,53.2184,34.3289,80.8929,279.2217,0.00024769,3.657e-05,0.0,0 STARLINK-3597,1 51898U 22022AY  23274.72411469  .00003657  00000-0  24769-3 0  9993,2 51898  53.2184  34.3289 0001354  80.8929 279.2217 15.08851717 88946,6917.845,95.437,540.646,538.773,0.0
51898.0,STARLINK-3597,PAYLOAD,2023-10-02 07:41:12,15.08832853,0.0002031,53.2189,31.6539,85.2798,274.8426,-1.9979e-06,-3.2e-06,0.0,0 STARLINK-3597,1 51898U 22022AY  23275.32028631 -.00000320  00000-0 -19979-5 0  9990,2 51898  53.2189  31.6539 0002031  85.2798 274.8426 15.08832853 89039,6917.902,95.438,541.172,538.362,0.0
51898.0,STARLINK-3597,PAYLOAD,2023-10-02 12:27:22,15.08832242,0.0001573,53.2187,30.7656,82.8942,277.2229,-1.2149e-05,-4.81e-06,0.0,0 STARLINK-3597,1 51898U 22022AY  23275.51900640 -.00000481  00000-0 -12149-4 0  9999,2 51898  53.2187  30.7656 0001573  82.8942 277.2229 15.08832242 89064,6917.904,95.438,540.857,538.681,0.0
51898.0,STARLINK-3597,PAYLOAD,2023-10-03 12:18:09,15.08839242,7.84e-05,53.2188,26.302,78.8845,281.2236,0.0001911,2.755e-05,0.0,0 STARLINK-3597,1 51898U 22022AY  23276.51260504  .00002755  00000-0  19110-3 0  9996,2 51898  53.2188  26.3020 0000784  78.8845 281.2236 15.08839242 89218,6917.883,95.438,540.29,539.205,0.0
51898.0,STARLINK-3597,PAYLOAD,2023-10-03 13:53:32,15.08847235,0.0001381,53.2177,26.0031,100.4481,259.6667,0.00044868,6.861e-05,0.0,0 STARLINK-3597,1 51898U 22022AY  23276.57884449  .00006861  00000-0  44868-3 0  9992,2 51898  53.2177  26.0031 0001381 100.4481 259.6667 15.08847235 89226,6917.858,95.437,540.679,538.768,0.0
51898.0,STARLINK-3597,PAYLOAD,2023-10-03 18:39:41,15.08857969,0.0001728,53.2179,25.1086,106.1496,253.9686,0.00065459,0.0001015,0.0,0 STARLINK-3597,1 51898U 22022AY  23276.77756107  .00010150  00000-0  65459-3 0  9998,2 51898  53.2179  25.1086 0001728 106.1496 253.9686 15.08857969 89258,6917.825,95.436,540.886,538.495,0.0
51898.0,STARLINK-3597,PAYLOAD,2023-10-04 10:33:32,15.08852776,0.0001652,53.2161,22.1389,103.2523,256.8654,0.00041294,6.292e-05,0.0,0 STARLINK-3597,1 51898U 22022AY  23277.43996136  .00006292  00000-0  41294-3 0  9993,2 51898  53.2161  22.1389 0001652 103.2523 256.8654 15.08852776 89356,6917.841,95.437,540.849,538.564,0.0
51898.0,STARLINK-3597,PAYLOAD,2023-10-04 13:44:18,15.08866059,0.0001429,53.2183,21.5445,97.2068,262.9086,0.00099581,0.00015607,0.0,0 STARLINK-3597,1 51898U 22022AY  23277.57243919  .00015607  00000-0  99581-3 0  9994,2 51898  53.2183  21.5445 0001429  97.2068 262.9086 15.08866059 89372,6917.801,95.436,540.654,538.677,0.0
51898.0,STARLINK-3597,PAYLOAD,2023-10-05 10:24:19,15.08852871,0.000143,53.2183,17.6782,90.6709,269.4447,0.0016336,0.00025816,0.0,0 STARLINK-3597,1 51898U 22022AY  23278.43355916  .00025816  00000-0  16336-2 0  9990,2 51898  53.2183  17.6782 0001430  90.6709 269.4447 15.08852871 89508,6917.841,95.437,540.695,538.717,0.0
51898.0,STARLINK-3597,PAYLOAD,2023-10-05 13:35:05,15.08860715,0.0001448,53.2184,17.0855,75.0783,285.0369,0.0025198,0.00040066,0.0,0 STARLINK-3597,1 51898U 22022AY  23278.56603952  .00040066  00000-0  25198-2 0  9990,2 51898  53.2184  17.0855 0001448  75.0783 285.0369 15.08860715 89527,6917.817,95.436,540.684,538.68,0.0
51898.0,STARLINK-3597,PAYLOAD,2023-10-06 10:15:07,15.088373,0.0001459,53.2187,13.2193,94.8795,265.2364,0.00078542,0.00012233,0.0,0 STARLINK-3597,1 51898U 22022AY  23279.42716654  .00012233  00000-0  78542-3 0  9997,2 51898  53.2187  13.2193 0001459  94.8795 265.2364 15.08837300 89650,6917.889,95.438,540.763,538.744,0.0
51898.0,STARLINK-3597,PAYLOAD,2023-10-06 13:25:53,15.08843484,0.0001532,53.2189,12.6266,90.3644,269.7524,0.0010073,0.00015781,0.0,0 STARLINK-3597,1 51898U 22022AY  23279.55964694  .00015781  00000-0  10073-2 0  9995,2 51898  53.2189  12.6266 0001532  90.3644 269.7524 15.08843484 89671,6917.87,95.437,540.795,538.675,0.0
